0 TITAN 3C TRANSTAGE DEB
1 28839U 65108CR  13283.87561301 -.00000034  00000-0  00000+0 0  2022
2 28839 026.8427 039.5283 6725531 259.0483 027.6843 02.54795701 83091
0 TITAN 3C TRANSTAGE DEB
1 28839U 65108CR  13293.68230235 -.00000100  00000-0  00000+0 0  2036
2 28839 026.8402 036.0744 6727509 264.8106 022.8659 02.54804387 83342
